[Satellite]
VERSION=1.1
NAME=ORBCOMM FM21 [+]
NICKNAME=ORBCOMM FM21 [+]
TLE1=1 25475U 98053A   15055.19262420  .00000873  00000-0  37608-3 0  9995
TLE2=2 25475  45.0111 348.2960 0001950 321.1979  38.8726 14.31732230857253
